GREENCUBE (IO-117)      
1 53109U 22080E   26114.95664860 -.00000003  00000+0  00000+0 0  9990
2 53109  70.1460 316.7669 0008766 301.9104  58.0702  6.42583378 88645
UMKA 1 (RS40S)          
1 57172U 23091G   26115.44613953  .00006477  00000+0  30157-3 0  9999
2 57172  97.5094 174.3592 0011405 307.5682  52.4517 15.20210474155990
CUBESX-HSE 3 (RS42S)    
1 57178U 23091N   26115.80524817  .00014382  00000+0  49866-3 0  9996
2 57178  97.5128 180.7762 0009343 276.6529  83.3648 15.29885956156416
MONITOR-3 (RS58S)       
1 57180U 23091Q   26115.84995692  .00011919  00000+0  45465-3 0  9990
2 57180  97.5121 178.9452 0010206 284.8226  75.1881 15.26784110156305
MONITOR-4 (RS57S)       
1 57182U 23091S   26115.83228201  .00011638  00000+0  44273-3 0  9990
2 57182  97.5115 178.8953 0010174 285.2172  74.7941 15.26879201156302
MONITOR-2 (RS39S)       
1 57184U 23091U   26115.86453955  .00005421  00000+0  26646-3 0  9998
2 57184  97.5116 174.4936 0009723 298.2135  61.8117 15.18419046156017
SVYATOBOR 1 (RS60S)     
1 57187U 23091X   26115.80286922  .00009871  00000+0  38966-3 0  9994
2 57187  97.5127 179.3572 0007877 275.9524  84.0816 15.25710956156323
VIZARD-METEO (RS38S)    
1 57189U 23091Z   26115.80663736  .00017947  00000+0  54105-3 0  9994
2 57189  97.5121 184.3036 0006144 249.2903 110.7681 15.34352396156654
POLYTECH-UNIVERSE 3 (R*)
1 57191U 23091AB  26115.83268329  .00005860  00000+0  28578-3 0  9995
2 57191  97.5091 173.9671 0014278 315.7313  44.2778 15.18615978156000
UTMN 2 (RS27S)          
1 57203U 23091AP  26115.85211062  .00014406  00000+0  48658-3 0  9990
2 57203  97.5121 182.3927 0006713 259.8487 100.1997 15.30754318156530
KUZGTU 1 (RS47S)        
1 57217U 23091AV  26115.81758647  .00012611  00000+0  45446-3 0  9994
2 57217  97.5101 179.8046 0009506 281.1409  78.8761 15.28653435156378
SONATE-2                
1 59112U 24043Q   26115.36644163  .00040246  00000+0  60064-3 0  9993
2 59112  97.5476 262.7011 0006807  43.3685 316.8103 15.54934316119674
MESAT1                  
1 60209U 24125G   26115.58644321  .00047982  00000+0  63870-3 0  9995
2 60209  97.2383 332.0618 0011800  59.3499 300.8919 15.57939272101364
OOV-CUBE (TUBSAT-30)    
1 60240U 24128F   26115.21865324  .00002518  00000+0  19941-3 0  9997
2 60240  61.9958  50.2328 0050615 122.1099 238.4920 15.02502609 98154
COLIBRI-S (RS67S)       
1 61746U 24199M   26115.84865157  .00024786  00000+0  51617-3 0  9997
2 61746  97.3078 349.2912 0010842 108.5773 251.6654 15.45528503129320
HORS 3 (RS81S)          
1 61753U 24199U   26115.51618977  .00033312  00000+0  56412-3 0  9998
2 61753  97.3057 350.4303 0009245 111.9534 248.2702 15.51436338129384
