[{"OBJECT_NAME":"GREENCUBE (IO-117)","OBJECT_ID":"2022-080E","EPOCH":"2026-04-24T22:57:34.439040","MEAN_MOTION":6.42583378,"ECCENTRICITY":0.00087667,"INCLINATION":70.146,"RA_OF_ASC_NODE":316.7669,"ARG_OF_PERICENTER":301.9104,"MEAN_ANOMALY":58.0702,"EPHEMERIS_TYPE":0,"CLASSIFICATION_TYPE":"U","NORAD_CAT_ID":53109,"ELEMENT_SET_NO":999,"REV_AT_EPOCH":8864,"BSTAR":0,"MEAN_MOTION_DOT":-3.0e-8,"MEAN_MOTION_DDOT":0},{"OBJECT_NAME":"UMKA 1 (RS40S)","OBJECT_ID":"2023-091G","EPOCH":"2026-04-25T10:42:26.455392","MEAN_MOTION":15.20210474,"ECCENTRICITY":0.0011405,"INCLINATION":97.5094,"RA_OF_ASC_NODE":174.3592,"ARG_OF_PERICENTER":307.5682,"MEAN_ANOMALY":52.4517,"EPHEMERIS_TYPE":0,"CLASSIFICATION_TYPE":"U","NORAD_CAT_ID":57172,"ELEMENT_SET_NO":999,"REV_AT_EPOCH":15599,"BSTAR":0.00030157,"MEAN_MOTION_DOT":6.477e-5,"MEAN_MOTION_DDOT":0},{"OBJECT_NAME":"CUBESX-HSE 3 (RS42S)","OBJECT_ID":"2023-091N","EPOCH":"2026-04-25T19:19:33.441888","MEAN_MOTION":15.29885956,"ECCENTRICITY":0.0009343,"INCLINATION":97.5128,"RA_OF_ASC_NODE":180.7762,"ARG_OF_PERICENTER":276.6529,"MEAN_ANOMALY":83.3648,"EPHEMERIS_TYPE":0,"CLASSIFICATION_TYPE":"U","NORAD_CAT_ID":57178,"ELEMENT_SET_NO":999,"REV_AT_EPOCH":15641,"BSTAR":0.00049866,"MEAN_MOTION_DOT":0.00014382,"MEAN_MOTION_DDOT":0},{"OBJECT_NAME":"MONITOR-3 (RS58S)","OBJECT_ID":"2023-091Q","EPOCH":"2026-04-25T20:23:56.277888","MEAN_MOTION":15.2678411,"ECCENTRICITY":0.0010206,"INCLINATION":97.5121,"RA_OF_ASC_NODE":178.9452,"ARG_OF_PERICENTER":284.8226,"MEAN_ANOMALY":75.1881,"EPHEMERIS_TYPE":0,"CLASSIFICATION_TYPE":"U","NORAD_CAT_ID":57180,"ELEMENT_SET_NO":999,"REV_AT_EPOCH":15630,"BSTAR":0.00045465,"MEAN_MOTION_DOT":0.00011919,"MEAN_MOTION_DDOT":0},{"OBJECT_NAME":"MONITOR-4 (RS57S)","OBJECT_ID":"2023-091S","EPOCH":"2026-04-25T19:58:29.165664","MEAN_MOTION":15.26879201,"ECCENTRICITY":0.0010174,"INCLINATION":97.5115,"RA_OF_ASC_NODE":178.8953,"ARG_OF_PERICENTER":285.2172,"MEAN_ANOMALY":74.7941,"EPHEMERIS_TYPE":0,"CLASSIFICATION_TYPE":"U","NORAD_CAT_ID":57182,"ELEMENT_SET_NO":999,"REV_AT_EPOCH":15630,"BSTAR":0.00044273,"MEAN_MOTION_DOT":0.00011638,"MEAN_MOTION_DDOT":0},{"OBJECT_NAME":"MONITOR-2 (RS39S)","OBJECT_ID":"2023-091U","EPOCH":"2026-04-25T20:44:56.217120","MEAN_MOTION":15.18419046,"ECCENTRICITY":0.0009723,"INCLINATION":97.5116,"RA_OF_ASC_NODE":174.4936,"ARG_OF_PERICENTER":298.2135,"MEAN_ANOMALY":61.8117,"EPHEMERIS_TYPE":0,"CLASSIFICATION_TYPE":"U","NORAD_CAT_ID":57184,"ELEMENT_SET_NO":999,"REV_AT_EPOCH":15601,"BSTAR":0.00026646,"MEAN_MOTION_DOT":5.421e-5,"MEAN_MOTION_DDOT":0},{"OBJECT_NAME":"SVYATOBOR 1 (RS60S)","OBJECT_ID":"2023-091X","EPOCH":"2026-04-25T19:16:07.900608","MEAN_MOTION":15.25710956,"ECCENTRICITY":0.0007877,"INCLINATION":97.5127,"RA_OF_ASC_NODE":179.3572,"ARG_OF_PERICENTER":275.9524,"MEAN_ANOMALY":84.0816,"EPHEMERIS_TYPE":0,"CLASSIFICATION_TYPE":"U","NORAD_CAT_ID":57187,"ELEMENT_SET_NO":999,"REV_AT_EPOCH":15632,"BSTAR":0.00038966,"MEAN_MOTION_DOT":9.871e-5,"MEAN_MOTION_DDOT":0},{"OBJECT_NAME":"VIZARD-METEO (RS38S)","OBJECT_ID":"2023-091Z","EPOCH":"2026-04-25T19:21:33.467904","MEAN_MOTION":15.34352396,"ECCENTRICITY":0.0006144,"INCLINATION":97.5121,"RA_OF_ASC_NODE":184.3036,"ARG_OF_PERICENTER":249.2903,"MEAN_ANOMALY":110.7681,"EPHEMERIS_TYPE":0,"CLASSIFICATION_TYPE":"U","NORAD_CAT_ID":57189,"ELEMENT_SET_NO":999,"REV_AT_EPOCH":15665,"BSTAR":0.00054105,"MEAN_MOTION_DOT":0.00017947,"MEAN_MOTION_DDOT":0},{"OBJECT_NAME":"POLYTECH-UNIVERSE 3 (RS46S)","OBJECT_ID":"2023-091AB","EPOCH":"2026-04-25T19:59:03.836256","MEAN_MOTION":15.18615978,"ECCENTRICITY":0.0014278,"INCLINATION":97.5091,"RA_OF_ASC_NODE":173.9671,"ARG_OF_PERICENTER":315.7313,"MEAN_ANOMALY":44.2778,"EPHEMERIS_TYPE":0,"CLASSIFICATION_TYPE":"U","NORAD_CAT_ID":57191,"ELEMENT_SET_NO":999,"REV_AT_EPOCH":15600,"BSTAR":0.00028578,"MEAN_MOTION_DOT":5.86e-5,"MEAN_MOTION_DDOT":0},{"OBJECT_NAME":"UTMN 2 (RS27S)","OBJECT_ID":"2023-091AP","EPOCH":"2026-04-25T20:27:02.357568","MEAN_MOTION":15.30754318,"ECCENTRICITY":0.0006713,"INCLINATION":97.5121,"RA_OF_ASC_NODE":182.3927,"ARG_OF_PERICENTER":259.8487,"MEAN_ANOMALY":100.1997,"EPHEMERIS_TYPE":0,"CLASSIFICATION_TYPE":"U","NORAD_CAT_ID":57203,"ELEMENT_SET_NO":999,"REV_AT_EPOCH":15653,"BSTAR":0.00048658,"MEAN_MOTION_DOT":0.00014406,"MEAN_MOTION_DDOT":0},{"OBJECT_NAME":"KUZGTU 1 (RS47S)","OBJECT_ID":"2023-091AV","EPOCH":"2026-04-25T19:37:19.471008","MEAN_MOTION":15.28653435,"ECCENTRICITY":0.0009506,"INCLINATION":97.5101,"RA_OF_ASC_NODE":179.8046,"ARG_OF_PERICENTER":281.1409,"MEAN_ANOMALY":78.8761,"EPHEMERIS_TYPE":0,"CLASSIFICATION_TYPE":"U","NORAD_CAT_ID":57217,"ELEMENT_SET_NO":999,"REV_AT_EPOCH":15637,"BSTAR":0.00045446,"MEAN_MOTION_DOT":0.00012611,"MEAN_MOTION_DDOT":0},{"OBJECT_NAME":"SONATE-2","OBJECT_ID":"2024-043Q","EPOCH":"2026-04-25T08:47:40.556832","MEAN_MOTION":15.54934316,"ECCENTRICITY":0.0006807,"INCLINATION":97.5476,"RA_OF_ASC_NODE":262.7011,"ARG_OF_PERICENTER":43.3685,"MEAN_ANOMALY":316.8103,"EPHEMERIS_TYPE":0,"CLASSIFICATION_TYPE":"U","NORAD_CAT_ID":59112,"ELEMENT_SET_NO":999,"REV_AT_EPOCH":11967,"BSTAR":0.00060064,"MEAN_MOTION_DOT":0.00040246,"MEAN_MOTION_DDOT":0},{"OBJECT_NAME":"MESAT1","OBJECT_ID":"2024-125G","EPOCH":"2026-04-25T14:04:28.693344","MEAN_MOTION":15.57939272,"ECCENTRICITY":0.00118,"INCLINATION":97.2383,"RA_OF_ASC_NODE":332.0618,"ARG_OF_PERICENTER":59.3499,"MEAN_ANOMALY":300.8919,"EPHEMERIS_TYPE":0,"CLASSIFICATION_TYPE":"U","NORAD_CAT_ID":60209,"ELEMENT_SET_NO":999,"REV_AT_EPOCH":10136,"BSTAR":0.0006387,"MEAN_MOTION_DOT":0.00047982,"MEAN_MOTION_DDOT":0},{"OBJECT_NAME":"OOV-CUBE (TUBSAT-30)","OBJECT_ID":"2024-128F","EPOCH":"2026-04-25T05:14:51.639936","MEAN_MOTION":15.02502609,"ECCENTRICITY":0.0050615,"INCLINATION":61.9958,"RA_OF_ASC_NODE":50.2328,"ARG_OF_PERICENTER":122.1099,"MEAN_ANOMALY":238.492,"EPHEMERIS_TYPE":0,"CLASSIFICATION_TYPE":"U","NORAD_CAT_ID":60240,"ELEMENT_SET_NO":999,"REV_AT_EPOCH":9815,"BSTAR":0.00019941,"MEAN_MOTION_DOT":2.518e-5,"MEAN_MOTION_DDOT":0},{"OBJECT_NAME":"COLIBRI-S (RS67S)","OBJECT_ID":"2024-199M","EPOCH":"2026-04-25T20:22:03.495648","MEAN_MOTION":15.45528503,"ECCENTRICITY":0.0010842,"INCLINATION":97.3078,"RA_OF_ASC_NODE":349.2912,"ARG_OF_PERICENTER":108.5773,"MEAN_ANOMALY":251.6654,"EPHEMERIS_TYPE":0,"CLASSIFICATION_TYPE":"U","NORAD_CAT_ID":61746,"ELEMENT_SET_NO":999,"REV_AT_EPOCH":12932,"BSTAR":0.00051617,"MEAN_MOTION_DOT":0.00024786,"MEAN_MOTION_DDOT":0},{"OBJECT_NAME":"HORS 3 (RS81S)","OBJECT_ID":"2024-199U","EPOCH":"2026-04-25T12:23:18.796128","MEAN_MOTION":15.51436338,"ECCENTRICITY":0.0009245,"INCLINATION":97.3057,"RA_OF_ASC_NODE":350.4303,"ARG_OF_PERICENTER":111.9534,"MEAN_ANOMALY":248.2702,"EPHEMERIS_TYPE":0,"CLASSIFICATION_TYPE":"U","NORAD_CAT_ID":61753,"ELEMENT_SET_NO":999,"REV_AT_EPOCH":12938,"BSTAR":0.00056412,"MEAN_MOTION_DOT":0.00033312,"MEAN_MOTION_DDOT":0}]
